CSS (TIANHE)            
1 48274U 21035A   24202.13134609  .00024472  00000+0  25282-3 0  9993
2 48274  41.4667 241.9056 0001999 101.7845 258.3219 15.64182288184251
